STARLINK-4372           
1 53233U 22084AW  24130.72479068  .00002929  00000+0  23255-3 0  9996
2 53233  97.6586 192.1136 0000636 168.7053 191.4185 15.01261151 98950
STARLINK-4368           
1 53234U 22084AX  24130.72639864  .00003625  00000+0  28666-3 0  9994
2 53234  97.6575 192.1060 0001562 239.3642 120.7429 15.01262595 99964
STARLINK-4056           
1 53242U 22086A   24130.94388060  .00006136  00000+0  40315-3 0  9993
2 53242  53.2167 321.2266 0001239  99.3722 260.7410 15.08852926100356
STARLINK-4047           
1 53243U 22086B   24130.84954489  .00003054  00000+0  20987-3 0  9996
2 53243  53.2183 326.3544 0001120  81.4296 278.6823 15.08839770100298
STARLINK-4125           
1 53244U 22086C   24130.94158593  .00019987  00000+0  12690-2 0  9993
2 53244  53.2166 326.3239 0001125  85.2699 274.8422 15.08878063100285
STARLINK-4124           
1 53245U 22086D   24130.91668981  .00934949  00000+0  40681-2 0  9993
2 53245  53.2132 303.8005 0001094  57.9955  73.3114 15.81814657  5976
STARLINK-4131           
1 53246U 22086E   24130.80542426  .00003394  00000+0  23119-3 0  9996
2 53246  53.2170 326.8559 0001224  93.7192 266.3940 15.08846989 99150
STARLINK-4061           
1 53247U 22086F   24130.75991600  .00000586  00000+0  54892-4 0  9996
2 53247  53.2167 322.2470 0001385 103.0608 257.0539 15.08831639100323
STARLINK-4135           
1 53248U 22086G   24130.74885829  .00000419  00000+0  44418-4 0  9999
2 53248  53.2186 322.2197 0001405  87.3990 272.7163 15.08836181100326
STARLINK-4128           
1 53249U 22086H   24130.75210301  .00002773  00000+0  19225-3 0  9990
2 53249  53.2175 317.1125 0001117 105.1380 254.9736 15.08843340100098
STARLINK-4059           
1 53250U 22086J   24130.82106468  .00003613  00000+0  24493-3 0  9995
2 53250  53.2182 316.7914 0001176  99.5502 260.5623 15.08847969100107
STARLINK-4129           
1 53251U 22086K   24130.81002632  .00004140  00000+0  27802-3 0  9996
2 53251  53.2156 316.8375 0001148  72.3392 287.7726 15.08845500100087
STARLINK-4132           
1 53252U 22086L   24130.87994018  .00016917  00000+0  10779-2 0  9990
2 53252  53.2166 316.4747 0001161  92.2280 267.8846 15.08858877100117
STARLINK-4133           
1 53253U 22086M   24130.80634528  .00000187  00000+0  29806-4 0  9996
2 53253  53.2169 316.8511 0000981  89.8006 270.3098 15.08836978100083
STARLINK-4134           
1 53254U 22086N   24130.74842832  .00003076  00000+0  21130-3 0  9990
2 53254  53.2165 317.1255 0000887  80.3862 279.7231 15.08833770100090
STARLINK-4142           
1 53255U 22086P   24130.93144463  .00008147  00000+0  52896-3 0  9994
2 53255  53.2175 316.2934 0001207  12.7628 347.3394 15.08868513100109
STARLINK-4147           
1 53256U 22086Q   24130.93513467 -.00003606  00000+0 -20854-3 0  9995
2 53256  53.2171 316.2774 0001034  99.5392 260.5717 15.08851295100101
STARLINK-4144           
1 53257U 22086R   24130.92042552  .00003478  00000+0  23646-3 0  9994
2 53257  53.2171 316.3423 0001293 104.8103 255.3032 15.08847165100104
STARLINK-4127           
1 53258U 22086S   24130.72906455  .00003482  00000+0  23674-3 0  9990
2 53258  53.2171 317.2020 0001358 111.1138 248.9999 15.08846453100074
STARLINK-4140           
1 53259U 22086T   24130.75109940  .00004809  00000+0  31996-3 0  9998
2 53259  53.2170 316.7460 0001193  92.8833 267.2295 15.08848404100082
STARLINK-4136           
1 53260U 22086U   24130.92410210 -.00002942  00000+0 -16679-3 0  9993
2 53260  53.2170 316.3244 0001064  94.1475 265.9639 15.08854093100105
STARLINK-4062           
1 53261U 22086V   24130.84314444  .00007538  00000+0  49102-3 0  9998
2 53261  53.2154 316.6915 0001234  68.3812 291.7312 15.08854886100096
STARLINK-4085           
1 53262U 22086W   24130.78426263  .00001353  00000+0  10308-3 0  9990
2 53262  53.2167 316.9517 0001032  93.9394 266.1716 15.08845501100084
STARLINK-4130           
1 53263U 22086X   24130.83946262  .00005453  00000+0  36031-3 0  9999
2 53263  53.2170 316.7052 0001222  83.4260 276.6871 15.08852657100097
STARLINK-3950           
1 53264U 22086Y   24130.78058408  .00007600  00000+0  49492-3 0  9991
2 53264  53.2170 316.9717 0001326  75.9326 284.1814 15.08852323100082
STARLINK-4097           
1 53265U 22086Z   24130.83210436  .00010017  00000+0  64635-3 0  9991
2 53265  53.2169 316.7391 0001062  83.7167 276.3946 15.08852276100091
STARLINK-4058           
1 53266U 22086AA  24130.83578661  .00020162  00000+0  12799-2 0  9994
2 53266  53.2168 316.7209 0001145  76.1499 283.9621 15.08878893100092
STARLINK-4060           
1 53267U 22086AB  24130.82474876  .00001481  00000+0  11113-3 0  9990
2 53267  53.2185 316.7710 0001193  86.9345 273.1784 15.08837262100097
STARLINK-4109           
1 53268U 22086AC  24130.82842525  .00010375  00000+0  66871-3 0  9994
2 53268  53.2166 316.7541 0001033  87.2412 272.8698 15.08855717100096
STARLINK-4057           
1 53269U 22086AD  24130.75206996  .00004510  00000+0  30120-3 0  9995
2 53269  53.2167 307.0982 0001205  80.5442 279.5686 15.08845171100218
STARLINK-4069           
1 53271U 22086AF  24130.70881465  .00007146  00000+0  63761-4 0  9999
2 53271  53.2144 282.7533 0000572  98.6790 261.4294 15.69721353100553
STARLINK-4122           
1 53272U 22086AG  24130.75574341  .00002919  00000+0  20138-3 0  9990
2 53272  53.2166 307.0799 0001206  96.3526 263.7603 15.08846717100217
STARLINK-4051           
1 53273U 22086AH  24130.80358403  .00003909  00000+0  26349-3 0  9996
2 53273  53.2164 306.8659 0001003  78.7019 281.4086 15.08845318100212
STARLINK-4050           
1 53274U 22086AJ  24130.81462901  .00002274  00000+0  16092-3 0  9995
2 53274  53.2167 306.8170 0001055  96.0051 264.1061 15.08836476100227
STARLINK-4179           
1 53275U 22086AK  24130.79990528  .00024171  00000+0  15311-2 0  9996
2 53275  53.2161 306.8845 0000841  81.9353 278.1735 15.08851370100213
STARLINK-4174           
1 53276U 22086AL  24130.80726305  .00001247  00000+0  96375-4 0  9999
2 53276  53.2178 306.8484 0001215  86.1725 273.9406 15.08848873100219
STARLINK-4178           
1 53277U 22086AM  24130.79254500 -.00001148  00000+0 -54086-4 0  9996
2 53277  53.2163 306.9458 0001112  84.7706 275.3413 15.08832115100211
STARLINK-4180           
1 53278U 22086AN  24130.72999246  .00002090  00000+0  14935-3 0  9996
2 53278  53.2144 307.1960 0000957  47.8322 312.2751 15.08833378100209
STARLINK-4169           
1 53280U 22086AQ  24130.65126795 -.00014292  00000+0 -88167-3 0  9999
2 53280  53.2176 262.2257 0001881  86.5271 273.5936 15.08837208100836
STARLINK-4182           
1 53281U 22086AR  24130.78150285  .00002635  00000+0  18352-3 0  9990
2 53281  53.2172 306.9749 0000619  92.9235 267.1828 15.08844099100211
STARLINK-4164           
1 53282U 22086AS  24130.78886422  .00004270  00000+0  28616-3 0  9991
2 53282  53.2166 306.9361 0001198  97.2286 262.8842 15.08847182100216
STARLINK-4175           
1 53283U 22086AT  24130.77782307  .00001822  00000+0  13254-3 0  9990
2 53283  53.2169 306.9845 0001139  84.7847 275.3275 15.08844877100213
STARLINK-4172           
1 53284U 22086AU  24130.91765787  .00001791  00000+0  13056-3 0  9995
2 53284  53.2170 306.3549 0001201  85.1829 274.9301 15.08846415100233
STARLINK-4173           
1 53285U 22086AV  24130.76678299  .00002764  00000+0  19169-3 0  9992
2 53285  53.2170 307.0317 0001275  92.3688 267.7450 15.08843675100206
STARLINK-4165           
1 53286U 22086AW  24130.81090949  .00008117  00000+0  52731-3 0  9999
2 53286  53.2163 306.5247 0000982  77.9828 282.1274 15.08852028100212
STARLINK-4107           
1 53287U 22086AX  24130.75942835  .00001061  00000+0  84752-4 0  9993
2 53287  53.2180 307.0653 0001227  95.0060 265.1072 15.08834283100200
STARLINK-4162           
1 53288U 22086AY  24130.77047406  .00028193  00000+0  17809-2 0  9998
2 53288  53.2167 307.0151 0000963  54.5975 305.5107 15.08871248100200
STARLINK-4176           
1 53289U 22086AZ  24130.80222369  .00004050  00000+0  27239-3 0  9991
2 53289  53.2155 302.0145 0001154  76.5645 283.5476 15.08842654100277
STARLINK-4149           
1 53290U 22086BA  24130.76311319  .00006670  00000+0  43661-3 0  9999
2 53290  53.2183 307.0477 0001137  93.7141 266.3981 15.08850554100207
STARLINK-4166           
1 53291U 22086BB  24130.76905925  .00004478  00000+0  29921-3 0  9999
2 53291  53.2172 301.8140 0001129  98.2109 261.9011 15.08846960100278
STARLINK-4159           
1 53292U 22086BC  24130.77416952  .00002608  00000+0  18189-3 0  9995
2 53292  53.2177 307.1800 0001271  98.1112 262.0024 15.08837814100204
STARLINK-4148           
1 53293U 22086BD  24130.72722444  .00005724  00000+0  37741-3 0  9994
2 53293  53.2162 297.1991 0001266  82.2045 277.9090 15.08843377100334
STARLINK-4146           
1 53294U 22086BE  24130.74560790  .00001083  00000+0  86153-4 0  9997
2 53294  53.2185 296.9627 0001315  82.6647 277.4494 15.08837025100381
STARLINK-4522           
1 53388U 22097A   24130.63247213  .00001052  00000+0  84190-4 0  9998
2 53388  53.2182 247.6376 0001414 102.2757 257.8394 15.08838091 97848
STARLINK-4523           
1 53389U 22097B   24130.62510351  .00003937  00000+0  26520-3 0  9990
2 53389  53.2188 247.6725 0001268  95.2169 264.8968 15.08851143 97666
STARLINK-4517           
1 53390U 22097C   24130.62878037  .00005103  00000+0  33840-3 0  9990
2 53390  53.2161 247.6539 0001098  83.0648 277.0469 15.08850006 97816
STARLINK-4521           
1 53391U 22097D   24130.62143286  .00001226  00000+0  95082-4 0  9991
2 53391  53.2162 247.6857 0001032  95.5624 264.5486 15.08833665 97666
STARLINK-4535           
1 53392U 22097E   24130.61406207  .00003145  00000+0  21555-3 0  9991
2 53392  53.2169 247.7171 0001117  88.2827 271.8293 15.08846705 97668
STARLINK-4530           
1 53393U 22097F   24130.61775127  .00001717  00000+0  12596-3 0  9990
2 53393  53.2159 247.7009 0000882  60.7385 299.3695 15.08836972 97015
